[{"OBJECT_NAME":"HAWK-2A","OBJECT_ID":"2021-006CW","EPOCH":"2026-03-09T16:18:25.817472","MEAN_MOTION":15.33304498,"ECCENTRICITY":0.00064498,"INCLINATION":97.2459,"RA_OF_ASC_NODE":115.6184,"ARG_OF_PERICENTER":187.1463,"MEAN_ANOMALY":172.9689,"EPHEMERIS_TYPE":0,"CLASSIFICATION_TYPE":"U","NORAD_CAT_ID":47505,"ELEMENT_SET_NO":999,"REV_AT_EPOCH":28424,"BSTAR":0.0002543136,"MEAN_MOTION_DOT":8.113e-5,"MEAN_MOTION_DDOT":0},{"OBJECT_NAME":"STARLINK-34352","OBJECT_ID":"2025-120B","EPOCH":"2026-03-09T09:58:58.658016","MEAN_MOTION":15.30195099,"ECCENTRICITY":0.00013497,"INCLINATION":53.1582,"RA_OF_ASC_NODE":118.0066,"ARG_OF_PERICENTER":71.674,"MEAN_ANOMALY":288.4407,"EPHEMERIS_TYPE":0,"CLASSIFICATION_TYPE":"U","NORAD_CAT_ID":64257,"ELEMENT_SET_NO":999,"REV_AT_EPOCH":4382,"BSTAR":0.00080299355,"MEAN_MOTION_DOT":0.00023495,"MEAN_MOTION_DDOT":0}]
